$$SOE
2461295.500000000, A.D. 2026-Sep-12 00:00:00.0000, 2.784167484760213E+08, 3.330032980109050E+08, -1.253968056719789E+07,
2461302.500000000, A.D. 2026-Sep-19 00:00:00.0000, 2.702087601331441E+08, 3.396305041578373E+08, -1.202437104908390E+07,
2461309.500000000, A.D. 2026-Sep-26 00:00:00.0000, 2.618404844035998E+08, 3.460562441117757E+08, -1.150192857194853E+07,
2461316.500000000, A.D. 2026-Oct-03 00:00:00.0000, 2.533168100429164E+08, 3.522766085703204E+08, -1.097265973785950E+07,
2461323.500000000, A.D. 2026-Oct-10 00:00:00.0000, 2.446427224798900E+08, 3.582878055292333E+08, -1.043687549342278E+07,
2461330.500000000, A.D. 2026-Oct-17 00:00:00.0000, 2.358233010289420E+08, 3.640861627878699E+08, -9.894890950742006E+06,
2461337.500000000, A.D. 2026-Oct-24 00:00:00.0000, 2.268637160285543E+08, 3.696681303016750E+08, -9.347025213042185E+06,
2461344.500000000, A.D. 2026-Oct-31 00:00:00.0000, 2.177692260066352E+08, 3.750302823137076E+08, -8.793601219446838E+06,
2461351.500000000, A.D. 2026-Nov-07 00:00:00.0000, 2.085451752143601E+08, 3.801693193373941E+08, -8.234945633922115E+06,
2461358.500000000, A.D. 2026-Nov-14 00:00:00.0000, 1.991969917323427E+08, 3.850820708746731E+08, -7.671388724320203E+06,
2461365.500000000, A.D. 2026-Nov-21 00:00:00.0000, 1.897301843386826E+08, 3.897654995444310E+08, -7.103264009532064E+06,
2461372.500000000, A.D. 2026-Nov-28 00:00:00.0000, 1.801503371370537E+08, 3.942167036064681E+08, -6.530907828328341E+06,
2461379.500000000, A.D. 2026-Dec-05 00:00:00.0000, 1.704631055621876E+08, 3.984329172255848E+08, -5.954659214993149E+06,
2461386.500000000, A.D. 2026-Dec-12 00:00:00.0000, 1.606742139296004E+08, 4.024115115879067E+08, -5.374859842687786E+06,
2461393.500000000, A.D. 2026-Dec-19 00:00:00.0000, 1.507894526435078E+08, 4.061499968751861E+08, -4.791853860844046E+06,
2461400.500000000, A.D. 2026-Dec-26 00:00:00.0000, 1.408146749222464E+08, 4.096460242292620E+08, -4.205987684395403E+06,
2461407.500000000, A.D. 2027-Jan-02 00:00:00.0000, 1.307557933195843E+08, 4.128973875156966E+08, -3.617609775808334E+06,
2461414.500000000, A.D. 2027-Jan-09 00:00:00.0000, 1.206187761611822E+08, 4.159020249057069E+08, -3.027070429079115E+06,
2461421.500000000, A.D. 2027-Jan-16 00:00:00.0000, 1.104096439331190E+08, 4.186580202834042E+08, -2.434721558296531E+06,
2461428.500000000, A.D. 2027-Jan-23 00:00:00.0000, 1.001344656693019E+08, 4.211636044365214E+08, -1.840916498299360E+06,
2461435.500000000, A.D. 2027-Jan-30 00:00:00.0000, 8.979935552574193E+07, 4.234171559806575E+08, -1.246009838641256E+06,
2461442.500000000, A.D. 2027-Feb-06 00:00:00.0000, 7.941046996647558E+07, 4.254172023555725E+08, -6.503573021925688E+05,
2461449.500000000, A.D. 2027-Feb-13 00:00:00.0000, 6.897400510190600E+07, 4.271624221124454E+08, -5.431552684381604E+04,
2461456.500000000, A.D. 2027-Feb-20 00:00:00.0000, 5.849619181769875E+07, 4.286516476974404E+08, 5.417584014406800E+05,
2461463.500000000, A.D. 2027-Feb-27 00:00:00.0000, 4.798329008898932E+07, 4.298838655130442E+08, 1.137507273594886E+06,
2461470.500000000, A.D. 2027-Mar-06 00:00:00.0000, 3.744158549768160E+07, 4.308582151812651E+08, 1.732573820537150E+06,
2461477.500000000, A.D. 2027-Mar-13 00:00:00.0000, 2.687738635624012E+07, 4.315739900587347E+08, 2.326600828018159E+06,
2461484.500000000, A.D. 2027-Mar-20 00:00:00.0000, 1.629702031121796E+07, 4.320306381663854E+08, 2.919231338261157E+06,
2461491.500000000, A.D. 2027-Mar-27 00:00:00.0000, 5.706830630299489E+06, 4.322277629827687E+08, 3.510108874797016E+06,
2461498.500000000, A.D. 2027-Apr-03 00:00:00.0000, -4.886827622199111E+06, 4.321651240520791E+08, 4.098877667762846E+06,
2461505.500000000, A.D. 2027-Apr-10 00:00:00.0000, -1.547759145782316E+07, 4.318426374289277E+08, 4.685182875719637E+06,
2461512.500000000, A.D. 2027-Apr-17 00:00:00.0000, -2.605909385996325E+07, 4.312603759445264E+08, 5.268670800602883E+06,
2461519.500000000, A.D. 2027-Apr-24 00:00:00.0000, -3.662496762166479E+07, 4.304185692310598E+08, 5.848989083298028E+06,
2461526.500000000, A.D. 2027-May-01 00:00:00.0000, -4.716884882332207E+07, 4.293176035310748E+08, 6.425786854501456E+06,
2461533.500000000, A.D. 2027-May-08 00:00:00.0000, -5.768437964081734E+07, 4.279580220400868E+08, 6.998714873706579E+06,
2461540.500000000, A.D. 2027-May-15 00:00:00.0000, -6.816521197803727E+07, 4.263405267368776E+08, 7.567425871265411E+06,
2461547.500000000, A.D. 2027-May-22 00:00:00.0000, -7.860501348281842E+07, 4.244659791080082E+08, 8.131575024922699E+06,
2461554.500000000, A.D. 2027-May-29 00:00:00.0000, -8.899747258871379E+07, 4.223353982939232E+08, 8.690820143233985E+06,
2461561.500000000, A.D. 2027-Jun-05 00:00:00.0000, -9.933630169759580E+07, 4.199499597900888E+08, 9.244821730667055E+06,
2461568.500000000, A.D. 2027-Jun-12 00:00:00.0000, -1.096152405070171E+08, 4.173109951370106E+08, 9.793243153555244E+06,
2461575.500000000, A.D. 2027-Jun-19 00:00:00.0000, -1.198280598097862E+08, 4.144199916631895E+08, 1.033575086081907E+07,
2461582.500000000, A.D. 2027-Jun-26 00:00:00.0000, -1.299685654838114E+08, 4.112785920190449E+08, 1.087201461255580E+07,
2461589.500000000, A.D. 2027-Jul-03 00:00:00.0000, -1.400306025376028E+08, 4.078885935103334E+08, 1.140170770514351E+07,
2461596.500000000, A.D. 2027-Jul-10 00:00:00.0000, -1.500080591716927E+08, 4.042519472404550E+08, 1.192450719027323E+07,
2461603.500000000, A.D. 2027-Jul-17 00:00:00.0000, -1.598948708160408E+08, 4.003707570233859E+08, 1.244009408145857E+07,
2461610.500000000, A.D. 2027-Jul-24 00:00:00.0000, -1.696850239826191E+08, 3.962472780042974E+08, 1.294815352855828E+07,
2461617.500000000, A.D. 2027-Jul-31 00:00:00.0000, -1.793725595171697E+08, 3.918839152218876E+08, 1.344837494181105E+07,
2461624.500000000, A.D. 2027-Aug-07 00:00:00.0000, -1.889515754475591E+08, 3.872832232621605E+08, 1.394045217787477E+07,
2461631.500000000, A.D. 2027-Aug-14 00:00:00.0000, -1.984162317277157E+08, 3.824479067499735E+08, 1.442408397809631E+07,
2461638.500000000, A.D. 2027-Aug-21 00:00:00.0000, -2.077607562555210E+08, 3.773808183130723E+08, 1.489897432729340E+07,
2461645.500000000, A.D. 2027-Aug-28 00:00:00.0000, -2.169794487326638E+08, 3.720849552197657E+08, 1.536483251682156E+07,
2461652.500000000, A.D. 2027-Sep-04 00:00:00.0000, -2.260666835487207E+08, 3.665634571967425E+08, 1.582137322458391E+07,
2461659.500000000, A.D. 2027-Sep-11 00:00:00.0000, -2.350169130816851E+08, 3.608196047711319E+08, 1.626831668544307E+07,
2461666.500000000, A.D. 2027-Sep-18 00:00:00.0000, -2.438246712768171E+08, 3.548568174885578E+08, 1.670538888622245E+07,
2461673.500000000, A.D. 2027-Sep-25 00:00:00.0000, -2.524845772706912E+08, 3.486786519301418E+08, 1.713232175751609E+07,
2461680.500000000, A.D. 2027-Oct-02 00:00:00.0000, -2.609913389817385E+08, 3.422887995566132E+08, 1.754885335723333E+07,
2461687.500000000, A.D. 2027-Oct-09 00:00:00.0000, -2.693397566414574E+08, 3.356910843758464E+08, 1.795472804302695E+07,
2461694.500000000, A.D. 2027-Oct-16 00:00:00.0000, -2.775247261998628E+08, 3.288894603799928E+08, 1.834969662294565E+07,
2461701.500000000, A.D. 2027-Oct-23 00:00:00.0000, -2.855412423420294E+08, 3.218880087476546E+08, 1.873351645967145E+07,
2461708.500000000, A.D. 2027-Oct-30 00:00:00.0000, -2.933844007379954E+08, 3.146909354225017E+08, 1.910595154357485E+07,
2461715.500000000, A.D. 2027-Nov-06 00:00:00.0000, -3.010494006875165E+08, 3.073025701982233E+08, 1.946677273324277E+07,
2461722.500000000, A.D. 2027-Nov-13 00:00:00.0000, -3.085315501432029E+08, 2.997273652373278E+08, 1.981575817564984E+07,
2461729.500000000, A.D. 2027-Nov-20 00:00:00.0000, -3.158262702047309E+08, 2.919698908400887E+08, 2.015269346103278E+07,
2461736.500000000, A.D. 2027-Nov-27 00:00:00.0000, -3.229290974621171E+08, 2.840348314265914E+08, 2.047737160633536E+07,
2461743.500000000, A.D. 2027-Dec-04 00:00:00.0000, -3.298356862114137E+08, 2.759269826474723E+08, 2.078959312740046E+07,
2461750.500000000, A.D. 2027-Dec-11 00:00:00.0000, -3.365418110916589E+08, 2.676512486633190E+08, 2.108916617151529E+07,
2461757.500000000, A.D. 2027-Dec-18 00:00:00.0000, -3.430433698647486E+08, 2.592126392561688E+08, 2.137590665733683E+07,
2461764.500000000, A.D. 2027-Dec-25 00:00:00.0000, -3.493363861832206E+08, 2.506162667727995E+08, 2.164963840806860E+07,
2461771.500000000, A.D. 2028-Jan-01 00:00:00.0000, -3.554170123019868E+08, 2.418673429164376E+08, 2.191019327529085E+07,
$$EOE